UWE-3                   
1 39446U 13066AG  19059.56572547  .00000225  00000-0  36376-4 0  9995
2 39446  97.5839  71.3885 0071395  60.1106 300.7174 14.78333287282404
SWARM B                 
1 39451U 13067A   19059.90571649  .00000355  00000-0  14216-4 0  9995
2 39451  87.7478  61.9574 0002331 119.0209 241.1270 15.21492988277808
SWARM A                 
1 39452U 13067B   19059.93278469  .00001123  00000-0  23912-4 0  9990
2 39452  87.3462 303.6270 0003386  84.8282 275.3362 15.43656781295963
SWARM C                 
1 39453U 13067C   19059.93271277  .00001125  00000-0  23966-4 0  9992
2 39453  87.3465 305.0609 0003379  83.8968 276.2674 15.43656781295923
SHIYAN 5 (SY-5)         
1 39455U 13068A   19059.81739186  .00000033  00000-0  21585-4 0  9992
2 39455  98.0518  10.5725 0013888 112.6127 247.6544 14.43871517277286
SES-8                   
1 39460U 13071A   19059.83122725 -.00000288  00000-0  00000-0 0  9997
2 39460   0.0534 275.5007 0001818 110.5021 166.5669  1.00272073 17784
INMARSAT 5-F1           
1 39476U 13073A   19059.70467422  .00000010  00000-0  00000-0 0  9990
2 39476   0.0153 132.2887 0000413 250.6606  91.5325  1.00272272 18876
TKSAT-1 (TUPAC KATARI)  
1 39481U 13075A   19059.89022503 -.00000212  00000-0  00000-0 0  9990
2 39481   0.0180 105.0831 0003017 248.6207  37.9514  1.00273545 18863
COSMOS 2488             
1 39483U 13076A   19059.69159987 -.00000021  00000-0 -22299-3 0  9994
2 39483  82.4845  29.8218 0020546 141.3018 218.9538 12.42888494234965
COSMOS 2489             
1 39484U 13076B   19059.74423622 -.00000000  00000-0 -74172-4 0  9996
2 39484  82.4884  30.3525 0022344 142.6224 217.6416 12.42892994235038
COSMOS 2490             
1 39485U 13076C   19059.71662633  .00000030  00000-0  14805-3 0  9998
2 39485  82.4834  29.6151 0021464 156.7151 203.4913 12.42896575234973
EXPRESS-AM5             
1 39487U 13077A   19059.57662966 -.00000299  00000-0  00000-0 0  9991
2 39487   0.0420 291.5924 0001014 123.9955  90.0933  1.00271122 19641
GSAT-14                 
1 39498U 14001A   19059.87288029 -.00000095  00000-0  00000-0 0  9992
2 39498   0.0714 273.3765 0004224  30.5070 242.6950  1.00272214 18700
THAICOM 6               
1 39500U 14002A   19059.85149227 -.00000140  00000-0  00000-0 0  9992
2 39500   0.0402 136.7202 0001557 278.9360 127.7632  1.00273045 18738
TDRS 12                 
1 39504U 14004A   19059.35430612 -.00000282  00000-0  00000+0 0  9990
2 39504   5.2496 336.3430 0002755 327.1132 300.7699  1.00280064 18711
ABS-2                   
1 39508U 14006A   19059.85070714 -.00000104  00000-0  00000-0 0  9998
2 39508   0.0598 294.6883 0002714  51.8331 192.9969  1.00272206 18570
ATHENA-FIDUS            
1 39509U 14006B   19059.84337934  .00000136  00000-0  00000-0 0  9992
2 39509   0.0196 232.4207 0001122 153.3270 114.0079  1.00274834 18359
TURKSAT 4A              
1 39522U 14007A   19059.91595493  .00000128  00000-0  00000-0 0  9993
2 39522   0.0654 277.7252 0004165  27.3510 225.0416  1.00272009 18262
NAVSTAR 69 (USA 248)    
1 39533U 14008A   19058.77917528  .00000046  00000-0  00000+0 0  9994
2 39533  53.9561 258.3288 0037315 190.2650 169.6817  2.00569411 36759
GPM-CORE                
1 39574U 14009C   19059.91298326  .00004030  00000-0  62208-4 0  9995
2 39574  65.0083 325.5602 0011133 286.5599  73.4324 15.55770107284227
EXPRESS-AT1             
1 39612U 14010A   19057.62202390  .00000059  00000-0  00000+0 0  9996
2 39612   0.0392 288.3879 0000101  35.3296 112.3538  1.00273673 18306
EXPRESS-AT2             
1 39613U 14010B   19059.88999512 -.00000300  00000-0  00000-0 0  9997
2 39613   0.0463 296.2635 0000959 182.9609 139.3965  1.00271996 17793
AMAZONAS 4A             
1 39616U 14011A   19059.89284211 -.00000270  00000-0  00000-0 0  9991
2 39616   0.0747  76.8803 0003032 266.3461  62.6024  1.00272771 17963
ASTRA 5B                
1 39617U 14011B   19059.84207079  .00000137  00000-0  00000-0 0  9995
2 39617   0.0281  55.0399 0003264 286.6631 151.2530  1.00271525 17948
COSMOS 2492 [GLONASS-M] 
1 39620U 14012A   19059.74657470 -.00000023  00000-0  10000-3 0  9992
2 39620  65.5872  43.5821 0016316 321.7266 249.6092  2.13103353 38433
SJ-11-06                
1 39624U 14014A   19059.78201350 -.00000000  00000-0  93542-5 0  9993
2 39624  98.0087 105.5912 0012888  21.0130 339.1588 14.60030051261977
SENTINEL-1A             
1 39634U 14016A   19059.72168247 -.00000109  00000-0 -13354-4 0  9990
2 39634  98.1815  68.4748 0001458  82.5285 277.6082 14.59197636261332
IRNSS-1B                
1 39635U 14017A   19059.20073014  .00000092  00000-0  00000+0 0  9990
2 39635  28.7138 284.9566 0018007 178.6035 181.5686  1.00278285 18077
LUCH 5V                 
1 39727U 14023A   19059.92651047 -.00000286  00000-0  00000-0 0  9993
2 39727   1.4413 301.9136 0003614  75.3195 209.4439  1.00273841535796
KAZSAT-3                
1 39728U 14023B   19059.70388910  .00000041  00000-0  00000-0 0  9994
2 39728   0.0119 157.4855 0000346 140.7400 171.8870  1.00280528 15729
KAZEOSAT 1              
1 39731U 14024A   19059.78318743 -.00000010  00000-0  10068-4 0  9990
2 39731  98.3630 138.5544 0001435  80.7361 279.3990 14.42034788254474
NAVSTAR 70 (USA 251)    
1 39741U 14026A   19059.56539714 -.00000024  00000-0  00000-0 0  9998
2 39741  55.8209  75.5672 0017084 291.0303  68.8354  2.00548900 35072
COSMOS 2496             
1 39761U 14028A   19059.75592672  .00000054  00000-0  32063-3 0  9994
2 39761  82.4502 338.3139 0019660 121.9040 238.3954 12.42894461216462
COSMOS 2497             
1 39762U 14028B   19059.72982655  .00000036  00000-0  18888-3 0  9995
2 39762  82.4559 338.9759 0021130 115.5116 244.8160 12.42893254216467
COSMOS 2498             
1 39763U 14028C   19059.78681464  .00000030  00000-0  14397-3 0  9991
2 39763  82.4527 338.3650 0021541 116.2407 244.0893 12.42876486216478
ALOS-2                  
1 39766U 14029A   19059.79614832  .00001874  00000-0  25764-3 0  9998
2 39766  97.9204 158.2107 0002218  98.1958 261.9491 14.79491023257513
UNIFORM 1               
1 39767U 14029B   19059.85504971  .00000068  00000-0  14588-4 0  9995
2 39767  97.8562 156.1974 0007123  71.3732 288.8252 14.83681899258131
SOCRATES                
1 39768U 14029C   19059.85261675  .00000032  00000-0  10187-4 0  9999
2 39768  97.8613 158.2999 0008174  92.9393 267.2754 14.84319022258245
RISING 2                
1 39769U 14029D   19059.78207690  .00000062  00000-0  14324-4 0  9999
2 39769  97.8512 152.9296 0005725  61.6612 298.5182 14.82045436257885
SPROUT                  
1 39770U 14029E   19059.83270900  .00000437  00000-0  54649-4 0  9991
2 39770  97.8786 163.9071 0010227  89.0163 271.2211 14.87190226258505
EUTELSAT 3B             
1 39773U 14030A   19059.90819093  .00000002  00000-0  00000-0 0  9992
2 39773   0.0816 324.5844 0002037 256.5811 267.2754  1.00270951 17349
COSMOS 2500 [GLONASS-M] 
1 40001U 14032A   19059.43351264 -.00000023  00000-0  00000-0 0  9993
2 40001  65.5285  43.5423 0007050 231.0379 321.7820  2.13102689 36640
KAZEOSAT 2              
1 40010U 14033A   19059.72630904  .00000025  00000-0  97369-5 0  9997
2 40010  97.8490 321.1151 0017853  53.9848 306.3015 14.82103930254009
HODOYOSHI-4             
1 40011U 14033B   19059.74216989  .00000073  00000-0  16073-4 0  9998
2 40011  97.8291 315.5519 0028236  50.7474 309.6243 14.81078168253754
UNISAT-6                
1 40012U 14033C   19059.63261235  .00000155  00000-0  30406-4 0  9998
2 40012  97.7742 290.8739 0059808  92.7662 268.0394 14.73931188252472
DEIMOS-2                
1 40013U 14033D   19059.73267853 -.00000101  00000-0 -56812-5 0  9995
2 40013  97.8484 325.5927 0002707  89.3168 270.8356 14.84590073254434
BUGSAT-1 (TITA)         
1 40014U 14033E   19059.82654953 -.00000058  00000-0  44971-6 0  9991
2 40014  98.0043   4.9951 0033283  65.4767 294.9921 14.95205453256082
HODOYOSHI-3             
1 40015U 14033F   19059.85238132  .00000083  00000-0  18240-4 0  9997
2 40015  97.8037 306.6985 0038311  62.7874 297.7233 14.78464827253300
SAUDISAT 4              
1 40016U 14033G   19059.62966743  .00000008  00000-0  85291-5 0  9997
2 40016  97.7801 296.3914 0049806  82.5144 278.1721 14.75225829252754
APRIZESAT 9             
1 40018U 14033J   19059.60946410  .00000007  00000-0  89206-5 0  9995
2 40018  97.7580 279.6010 0072714 120.2153 240.6281 14.69914812251647
APRIZESAT 10            
1 40019U 14033K   19059.53575396  .00000039  00000-0  14824-4 0  9997
2 40019  97.7561 270.9205 0085181 142.8850 217.8287 14.66978511251312
BRITE-CA1 (TORONTO)     
1 40020U 14033L   19059.55832236  .00000053  00000-0  17218-4 0  9996
2 40020  97.7577 269.4187 0088253 147.0383 213.6368 14.66553386251160
DUCHIFAT-1              
1 40021U 14033M   19059.78788307  .00000455  00000-0  52366-4 0  9990
2 40021  97.9221 344.0424 0014219  55.7674 304.4888 14.90532472255173
FLOCK 1C-10             
1 40023U 14033P   19059.78668850  .00000612  00000-0  69965-4 0  9990
2 40023  97.9223 342.2943 0014114  64.1790 296.0881 14.89594940255018
NANOSATC-BR1            
1 40024U 14033Q   19059.75722440  .00000250  00000-0  31974-4 0  9991
2 40024  97.9130 341.7029 0013542  59.0577 301.1969 14.89760491254554
QB50P1                  
1 40025U 14033R   19059.75359150  .00000215  00000-0  28864-4 0  9991
2 40025  97.9067 339.6181 0013811  63.9777 296.2861 14.88873022254452
FLOCK 1C-7              
1 40026U 14033S   19059.76251602  .00000503  00000-0  57549-4 0  9998
2 40026  97.9271 343.9418 0012500  59.9847 300.2609 14.90344574254586
FLOCK 1C-1              
1 40027U 14033T   19059.72992562  .00000622  00000-0  70986-4 0  9994
2 40027  97.9247 342.6735 0014023  61.8437 298.4195 14.89652176254493
FLOCK 1C-2              
1 40029U 14033V   19059.74541594  .00000548  00000-0  63132-4 0  9995
2 40029  97.9235 342.5003 0015240  60.0261 300.2467 14.89689578254510
